start=new Date('2023-06-03T00:00:00.000Z').valueOf();
sats=[{"APOAPSIS":"540.432","TLE_LINE2":"2 53572  53.2172 272.6332 0000988  90.0359 270.0746 15.08839113 43811","ARG_OF_PERICENTER":"90.0359","RCS_SIZE":"LARGE","DECAY_DATE":null,"CENTER_NAME":"EARTH","SEMIMAJOR_AXIS":"6917.883","REV_AT_EPOCH":"4381","NORAD_CAT_ID":"53572","RA_OF_ASC_NODE":"272.6332","COUNTRY_CODE":"US","SITE":"AFETR","OBJECT_ID":"2022-101AX","MEAN_ELEMENT_THEORY":"SGP4","MEAN_ANOMALY":"270.0746","MEAN_MOTION_DDOT":"0.0000000000000","OBJECT_TYPE":"PAYLOAD","ELEMENT_SET_NO":"999","TLE_LINE1":"1 53572U 22101AX  23153.62665508  .00000366  00000-0  41077-4 0  9998","ECCENTRICITY":"0.00009880","GP_ID":"233072263","FILE":"3923570","INCLINATION":"53.2172","LAUNCH_DATE":"2022-08-19","EPOCH":"2023-06-02T15:02:22.998912","PERIOD":"95.438","MEAN_MOTION":"15.08839113","EPHEMERIS_TYPE":"0","REF_FRAME":"TEME","OBJECT_NAME":"STARLINK-4555","MEAN_MOTION_DOT":"0.00000366","TIME_SYSTEM":"UTC","PERIAPSIS":"539.065","BSTAR":"0.00004107700000","CLASSIFICATION_TYPE":"U"},{"ELEMENT_SET_NO":"999","OBJECT_TYPE":"PAYLOAD","MEAN_MOTION_DDOT":"0.0000000000000","MEAN_ANOMALY":"245.0394","MEAN_ELEMENT_THEORY":"SGP4","OBJECT_ID":"2022-101AY","SITE":"AFETR","COUNTRY_CODE":"US","RA_OF_ASC_NODE":"272.4323","NORAD_CAT_ID":"53573","REV_AT_EPOCH":"4382","SEMIMAJOR_AXIS":"6917.873","CENTER_NAME":"EARTH","DECAY_DATE":null,"RCS_SIZE":"LARGE","ARG_OF_PERICENTER":"115.0699","TLE_LINE2":"2 53573  53.2163 272.4323 0000977 115.0699 245.0394 15.08842407 43825","APOAPSIS":"540.414","CLASSIFICATION_TYPE":"U","BSTAR":"-0.00002568800000","PERIAPSIS":"539.062","TIME_SYSTEM":"UTC","REF_FRAME":"TEME","MEAN_MOTION_DOT":"-0.00000697","OBJECT_NAME":"STARLINK-4547","EPHEMERIS_TYPE":"0","MEAN_MOTION":"15.08842407","PERIOD":"95.437","EPOCH":"2023-06-02T16:58:59.454048","LAUNCH_DATE":"2022-08-19","INCLINATION":"53.2163","FILE":"3923570","GP_ID":"233072513","ECCENTRICITY":"0.00009770","TLE_LINE1":"1 53573U 22101AY  23153.70763257 -.00000697  00000-0 -25688-4 0  9997"},{"APOAPSIS":"540.245","TLE_LINE2":"2 53574  53.2172 272.9527 0000670  77.5138 282.5929 15.08828155 43809","ARG_OF_PERICENTER":"77.5138","RCS_SIZE":"LARGE","CENTER_NAME":"EARTH","DECAY_DATE":null,"SEMIMAJOR_AXIS":"6917.917","REV_AT_EPOCH":"4380","NORAD_CAT_ID":"53574","RA_OF_ASC_NODE":"272.9527","COUNTRY_CODE":"US","SITE":"AFETR","OBJECT_ID":"2022-101AZ","MEAN_ELEMENT_THEORY":"SGP4","MEAN_ANOMALY":"282.5929","MEAN_MOTION_DDOT":"0.0000000000000","OBJECT_TYPE":"PAYLOAD","ELEMENT_SET_NO":"999","TLE_LINE1":"1 53574U 22101AZ  23153.56410853 -.00000829  00000-0 -34015-4 0  9994","ECCENTRICITY":"0.00006700","FILE":"3923443","GP_ID":"233045916","INCLINATION":"53.2172","LAUNCH_DATE":"2022-08-19","EPOCH":"2023-06-02T13:32:18.976992","PERIOD":"95.438","MEAN_MOTION":"15.08828155","EPHEMERIS_TYPE":"0","OBJECT_NAME":"STARLINK-4559","REF_FRAME":"TEME","MEAN_MOTION_DOT":"-0.00000829","TIME_SYSTEM":"UTC","PERIAPSIS":"539.318","BSTAR":"-0.00003401500000","CLASSIFICATION_TYPE":"U"},{"OBJECT_ID":"2022-101BA","SITE":"AFETR","MEAN_ELEMENT_THEORY":"SGP4","RA_OF_ASC_NODE":"272.4080","NORAD_CAT_ID":"53575","COUNTRY_CODE":"US","ELEMENT_SET_NO":"999","OBJECT_TYPE":"PAYLOAD","MEAN_ANOMALY":"254.2602","MEAN_MOTION_DDOT":"0.0000000000000","ARG_OF_PERICENTER":"105.8531","TLE_LINE2":"2 53575  53.2175 272.4080 0001277 105.8531 254.2602 15.08828619 44516","APOAPSIS":"540.664","SEMIMAJOR_AXIS":"6917.915","CENTER_NAME":"EARTH","DECAY_DATE":null,"REV_AT_EPOCH":"4451","RCS_SIZE":"LARGE","REF_FRAME":"TEME","OBJECT_NAME":"STARLINK-4551","MEAN_MOTION_DOT":"-0.00001754","EPHEMERIS_TYPE":"0","TIME_SYSTEM":"UTC","MEAN_MOTION":"15.08828619","BSTAR":"-0.00009217300000","CLASSIFICATION_TYPE":"U","PERIAPSIS":"538.897","ECCENTRICITY":"0.00012770","TLE_LINE1":"1 53575U 22101BA  23153.70395980 -.00001754  00000-0 -92173-4 0  9991","FILE":"3923570","GP_ID":"233073012","PERIOD":"95.438","EPOCH":"2023-06-02T16:53:42.126720","INCLINATION":"53.2175","LAUNCH_DATE":"2022-08-19"},{"REV_AT_EPOCH":"4463","CENTER_NAME":"EARTH","DECAY_DATE":null,"SEMIMAJOR_AXIS":"6917.890","RCS_SIZE":"LARGE","ARG_OF_PERICENTER":"93.8526","APOAPSIS":"540.302","TLE_LINE2":"2 53576  53.2189 272.7061 0000791  93.8526 266.2557 15.08837016 44630","OBJECT_TYPE":"PAYLOAD","ELEMENT_SET_NO":"999","MEAN_MOTION_DDOT":"0.0000000000000","MEAN_ANOMALY":"266.2557","MEAN_ELEMENT_THEORY":"SGP4","SITE":"AFETR","OBJECT_ID":"2022-101BB","COUNTRY_CODE":"US","NORAD_CAT_ID":"53576","RA_OF_ASC_NODE":"272.7061","EPOCH":"2023-06-02T15:19:40.957536","PERIOD":"95.438","LAUNCH_DATE":"2022-08-19","INCLINATION":"53.2189","FILE":"3923570","GP_ID":"233071763","TLE_LINE1":"1 53576U 22101BB  23153.63866849 -.00000152  00000-0  85335-5 0  9994","ECCENTRICITY":"0.00007910","CLASSIFICATION_TYPE":"U","BSTAR":"0.00000853350000","PERIAPSIS":"539.207","TIME_SYSTEM":"UTC","EPHEMERIS_TYPE":"0","REF_FRAME":"TEME","MEAN_MOTION_DOT":"-0.00000152","OBJECT_NAME":"STARLINK-4581","MEAN_MOTION":"15.08837016"},{"MEAN_MOTION_DOT":"-0.00001134","REF_FRAME":"TEME","OBJECT_NAME":"STARLINK-4553","EPHEMERIS_TYPE":"0","TIME_SYSTEM":"UTC","MEAN_MOTION":"15.08829123","BSTAR":"-0.00005321100000","CLASSIFICATION_TYPE":"U","PERIAPSIS":"539.126","ECCENTRICITY":"0.00009430","TLE_LINE1":"1 53577U 22101BC  23153.56779139 -.00001134  00000-0 -53211-4 0  9991","FILE":"3923462","GP_ID":"233045925","PERIOD":"95.438","EPOCH":"2023-06-02T13:37:37.176096","INCLINATION":"53.2181","LAUNCH_DATE":"2022-08-19","OBJECT_ID":"2022-101BC","SITE":"AFETR","MEAN_ELEMENT_THEORY":"SGP4","RA_OF_ASC_NODE":"272.9775","NORAD_CAT_ID":"53577","COUNTRY_CODE":"US","ELEMENT_SET_NO":"999","OBJECT_TYPE":"PAYLOAD","MEAN_ANOMALY":"266.1901","MEAN_MOTION_DDOT":"0.0000000000000","ARG_OF_PERICENTER":"93.9199","TLE_LINE2":"2 53577  53.2181 272.9775 0000943  93.9199 266.1901 15.08829123 43803","APOAPSIS":"540.431","SEMIMAJOR_AXIS":"6917.914","CENTER_NAME":"EARTH","DECAY_DATE":null,"REV_AT_EPOCH":"4380","RCS_SIZE":"LARGE"},{"EPOCH":"2023-06-02T14:57:04.562208","PERIOD":"95.438","LAUNCH_DATE":"2022-08-19","INCLINATION":"53.2175","FILE":"3923570","GP_ID":"233073265","TLE_LINE1":"1 53578U 22101BD  23153.62296947 -.00000300  00000-0 -79399-6 0  9991","ECCENTRICITY":"0.00010110","CLASSIFICATION_TYPE":"U","BSTAR":"-0.00000079399000","PERIAPSIS":"539.047","TIME_SYSTEM":"UTC","EPHEMERIS_TYPE":"0","MEAN_MOTION_DOT":"-0.00000300","REF_FRAME":"TEME","OBJECT_NAME":"STARLINK-4556","MEAN_MOTION":"15.08839632","REV_AT_EPOCH":"4381","DECAY_DATE":null,"CENTER_NAME":"EARTH","SEMIMAJOR_AXIS":"6917.882","RCS_SIZE":"LARGE","ARG_OF_PERICENTER":"97.8713","APOAPSIS":"540.446","TLE_LINE2":"2 53578  53.2175 272.6073 0001011  97.8713 262.2394 15.08839632 43817","OBJECT_TYPE":"PAYLOAD","ELEMENT_SET_NO":"999","MEAN_MOTION_DDOT":"0.0000000000000","MEAN_ANOMALY":"262.2394","MEAN_ELEMENT_THEORY":"SGP4","SITE":"AFETR","OBJECT_ID":"2022-101BD","COUNTRY_CODE":"US","NORAD_CAT_ID":"53578","RA_OF_ASC_NODE":"272.6073"},{"EPHEMERIS_TYPE":"0","OBJECT_NAME":"STARLINK-4580","MEAN_MOTION_DOT":"-0.00000856","REF_FRAME":"TEME","TIME_SYSTEM":"UTC","MEAN_MOTION":"15.08835334","BSTAR":"-0.00003569600000","CLASSIFICATION_TYPE":"U","PERIAPSIS":"539.022","TLE_LINE1":"1 53579U 22101BE  23153.61928603 -.00000856  00000-0 -35696-4 0  9998","ECCENTRICITY":"0.00010670","FILE":"3923570","GP_ID":"233073513","EPOCH":"2023-06-02T14:51:46.312992","PERIOD":"95.438","INCLINATION":"53.2169","LAUNCH_DATE":"2022-08-19","SITE":"AFETR","OBJECT_ID":"2022-101BE","MEAN_ELEMENT_THEORY":"SGP4","NORAD_CAT_ID":"53579","RA_OF_ASC_NODE":"272.5834","COUNTRY_CODE":"US","OBJECT_TYPE":"PAYLOAD","ELEMENT_SET_NO":"999","MEAN_ANOMALY":"257.0832","MEAN_MOTION_DDOT":"0.0000000000000","ARG_OF_PERICENTER":"103.0279","APOAPSIS":"540.498","TLE_LINE2":"2 53579  53.2169 272.5834 0001067 103.0279 257.0832 15.08835334 43817","CENTER_NAME":"EARTH","DECAY_DATE":null,"SEMIMAJOR_AXIS":"6917.895","REV_AT_EPOCH":"4381","RCS_SIZE":"LARGE"},{"PERIAPSIS":"539.068","BSTAR":"0.00003003400000","CLASSIFICATION_TYPE":"U","MEAN_MOTION":"15.08840513","OBJECT_NAME":"STARLINK-4691","REF_FRAME":"TEME","MEAN_MOTION_DOT":"0.00000190","EPHEMERIS_TYPE":"0","TIME_SYSTEM":"UTC","INCLINATION":"53.2169","LAUNCH_DATE":"2022-08-28","PERIOD":"95.438","EPOCH":"2023-06-02T03:40:12.224928","ECCENTRICITY":"0.00009770","TLE_LINE1":"1 53588U 22104A   23153.15291927  .00000190  00000-0  30034-4 0  9992","FILE":"3923342","GP_ID":"233039676","MEAN_ANOMALY":"272.2138","MEAN_MOTION_DDOT":"0.0000000000000","ELEMENT_SET_NO":"999","OBJECT_TYPE":"PAYLOAD","RA_OF_ASC_NODE":"105.3371","NORAD_CAT_ID":"53588","COUNTRY_CODE":"US","OBJECT_ID":"2022-104A","SITE":"AFETR","MEAN_ELEMENT_THEORY":"SGP4","RCS_SIZE":"LARGE","SEMIMAJOR_AXIS":"6917.879","DECAY_DATE":null,"CENTER_NAME":"EARTH","REV_AT_EPOCH":"4338","TLE_LINE2":"2 53588  53.2169 105.3371 0000977  87.8966 272.2138 15.08840513 43382","APOAPSIS":"540.420","ARG_OF_PERICENTER":"87.8966"},{"RA_OF_ASC_NODE":"104.6195","NORAD_CAT_ID":"53589","COUNTRY_CODE":"US","OBJECT_ID":"2022-104B","SITE":"AFETR","MEAN_ELEMENT_THEORY":"SGP4","MEAN_ANOMALY":"223.0869","MEAN_MOTION_DDOT":"0.0000000000000","ELEMENT_SET_NO":"999","OBJECT_TYPE":"PAYLOAD","TLE_LINE2":"2 53589  53.2152 104.6195 0000859 137.0190 223.0869 15.08840312 43255","APOAPSIS":"540.339","ARG_OF_PERICENTER":"137.0190","RCS_SIZE":"LARGE","SEMIMAJOR_AXIS":"6917.879","DECAY_DATE":null,"CENTER_NAME":"EARTH","REV_AT_EPOCH":"4325","MEAN_MOTION":"15.08840312","OBJECT_NAME":"STARLINK-4673","REF_FRAME":"TEME","MEAN_MOTION_DOT":"-0.00000230","EPHEMERIS_TYPE":"0","TIME_SYSTEM":"UTC","PERIAPSIS":"539.150","BSTAR":"0.00000361930000","CLASSIFICATION_TYPE":"U","ECCENTRICITY":"0.00008590","TLE_LINE1":"1 53589U 22104B   23153.26697704 -.00000230  00000-0  36193-5 0  9997","GP_ID":"233040928","FILE":"3923342","INCLINATION":"53.2152","LAUNCH_DATE":"2022-08-28","PERIOD":"95.438","EPOCH":"2023-06-02T06:24:26.816256"}];
